     2.100          NAVIGATION                              RINEX VERSION / TYPE
fic2rin                                 03/09/2010 00:08:08 PGM / RUN BY / DATE
                                                            END OF HEADER
17 10  3  8  2  0  0.0  .135273206979D-03  .284217094304D-11  .000000000000D+00
     .710000000000D+02 -.173125000000D+02  .471983945740D-08 -.222283337713D+00
    -.910833477974D-06  .523418514058D-02  .758469104767D-05  .515356702423D+04
     .936000000000D+05  .502914190292D-07 -.276261713032D+00  .782310962677D-07
     .960444414685D+00  .234468750000D+03 -.255969261388D+01 -.809533720329D-08
     .892894335490D-10  .100000000000D+01  .157400000000D+04  .000000000000D+00
     .240000000000D+01  .000000000000D+00 -.102445483208D-07  .710000000000D+02
     .864060000000D+05  .400000000000D+01
18 10  3  8  2  0  0.0  .536669977009D-04  .261479726760D-11  .000000000000D+00
     .780000000000D+02  .634375000000D+02  .498592196938D-08  .125742195327D+01
     .332854688168D-05  .110079410952D-01  .819936394691D-05  .515367870140D+04
     .936000000000D+05 -.162050127983D-06  .182048890349D+01  .119209289551D-06
     .938059700969D+00  .207406250000D+03 -.235023843574D+01 -.840785022071D-08
    -.227866634417D-09  .100000000000D+01  .157400000000D+04  .000000000000D+00
     .240000000000D+01  .000000000000D+00 -.107102096081D-07  .780000000000D+02
     .864060000000D+05  .400000000000D+01
19 10  3  8  2  0  0.0 -.200350768864D-04 -.238742359215D-11  .000000000000D+00
     .000000000000D+00 -.128437500000D+02  .461876381862D-08 -.817314679317D+00
    -.694766640663D-06  .621786422562D-02  .804103910923D-05  .515370364189D+04
     .936000000000D+05  .242143869400D-07 -.221038117936D+00 -.143423676491D-06
     .958107097303D+00  .224437500000D+03 -.177202362858D+00 -.800819071614D-08
     .125005206969D-09  .100000000000D+01  .157400000000D+04  .000000000000D+00
     .240000000000D+01  .000000000000D+00 -.149011611938D-07  .000000000000D+00
     .864060000000D+05  .400000000000D+01
20 10  3  8  2  0  0.0  .599557533860D-04 -.682121026330D-12  .000000000000D+00
     .410000000000D+02  .527187500000D+02  .494163441034D-08  .140723886126D+01
     .273250043392D-05  .434563844465D-02  .738911330700D-05  .515366331863D+04
     .936000000000D+05 -.670552253723D-07  .176654268019D+01 -.447034835815D-07
     .937876372464D+00  .223750000000D+03  .129538269224D+01 -.828748806429D-08
    -.103218585183D-09  .100000000000D+01  .157400000000D+04  .000000000000D+00
     .240000000000D+01  .000000000000D+00 -.791624188423D-08  .410000000000D+02
     .864060000000D+05  .400000000000D+01
21 10  3  8  2  0  0.0 -.452231615782D-04 -.250111042988D-11  .000000000000D+00
     .620000000000D+02  .154687500000D+02  .517021536022D-08  .238587227771D+01
     .664964318275D-06  .160762815503D-01  .819005072117D-05  .515369752693D+04
     .936000000000D+05 -.236555933952D-06  .762874737252D+00 -.284984707832D-06
     .932951435343D+00  .207625000000D+03 -.251668030174D+01 -.810748056625D-08
    -.127505311108D-09  .100000000000D+01  .157400000000D+04  .000000000000D+00
     .240000000000D+01  .000000000000D+00 -.121071934700D-07  .620000000000D+02
     .864060000000D+05  .400000000000D+01
22 10  3  8  2  0  0.0  .177464913577D-03 -.102318153949D-11  .000000000000D+00
     .560000000000D+02  .623750000000D+02  .505663920075D-08  .266136934540D+00
     .321865081787D-05  .509064178914D-02  .800192356110D-05  .515366230965D+04
     .936000000000D+05 -.102445483208D-06  .182557512294D+01  .409781932831D-07
     .935740563270D+00  .211750000000D+03 -.190503171903D+01 -.836784855448D-08
    -.143934566881D-09  .100000000000D+01  .157400000000D+04  .000000000000D+00
     .240000000000D+01  .000000000000D+00 -.176951289177D-07  .560000000000D+02
     .864060000000D+05  .400000000000D+01
23 10  3  8  2  0  0.0  .378011725843D-03 -.102318153949D-11  .000000000000D+00
     .630000000000D+02  .423125000000D+02  .438053960991D-08 -.136028723989D+01
     .201724469662D-05  .639322644565D-02  .499933958054D-05  .515371876335D+04
     .936000000000D+05  .372529029846D-07  .285136092432D+01 -.540167093277D-07
     .968789392413D+00  .287468750000D+03  .300366932663D+01 -.811783814054D-08
     .100718481043D-09  .100000000000D+01  .157400000000D+04  .000000000000D+00
     .240000000000D+01  .000000000000D+00 -.200234353542D-07  .630000000000D+02
     .864060000000D+05  .400000000000D+01
24 10  3  8  2  0  0.0  .268538016826D-03  .329691829393D-11  .000000000000D+00
     .107000000000D+03  .196875000000D+02  .488948938114D-08  .528532839377D+00
     .106915831566D-05  .581206928473D-02  .795163214207D-05  .515488720512D+04
     .936000000000D+05  .968575477600D-07  .799910511164D+00 -.117346644402D-06
     .949531145292D+00  .219843750000D+03 -.474854074070D+00 -.814069623553D-08
    -.115719105880D-09  .100000000000D+01  .157400000000D+04  .000000000000D+00
     .340000000000D+01  .000000000000D+00 -.139698386192D-08  .107000000000D+03
     .864060000000D+05  .400000000000D+01
26 10  3  8  2  0  0.0 -.256011262536D-04 -.397903932026D-11  .000000000000D+00
     .580000000000D+02  .501875000000D+02  .387480425829D-08 -.314146168585D+01
     .232085585594D-05  .193320093676D-01  .481866300106D-05  .515233898163D+04
     .936000000000D+05  .106170773506D-06  .290704106543D+01 -.337138772011D-06
     .991405378848D+00  .300875000000D+03  .106504034803D+01 -.764531845820D-08
     .317870383435D-10  .100000000000D+01  .157400000000D+04  .000000000000D+00
     .240000000000D+01  .000000000000D+00 -.605359673500D-08  .580000000000D+02
     .864060000000D+05  .400000000000D+01
28 10  3  8  2  0  0.0 -.209151767194D-04  .682121026330D-12  .000000000000D+00
     .109000000000D+03 -.530937500000D+02  .437018203562D-08  .441352856529D+00
    -.264681875706D-05  .158976241946D-01  .834837555885D-05  .515366615868D+04
     .936000000000D+05 -.266358256340D-06 -.131149761264D+01  .558793544769D-07
     .969187412923D+00  .227375000000D+03 -.196986630116D+01 -.816141138411D-08
     .325013538118D-10  .100000000000D+01  .157400000000D+04  .000000000000D+00
     .240000000000D+01  .000000000000D+00 -.107102096081D-07  .109000000000D+03
     .864060000000D+05  .400000000000D+01
29 10  3  8  2  0  0.0  .103375874460D-03  .284217094304D-11  .000000000000D+00
     .620000000000D+02 -.206250000000D+02  .455090384913D-08  .259958651279D+01
    -.116229057312D-05  .296373572201D-02  .800378620625D-05  .515377845955D+04
     .936000000000D+05  .260770320892D-07 -.268035745153D+00  .242143869400D-07
     .960755899202D+00  .224500000000D+03 -.131680281044D+01 -.784211236974D-08
     .117504894551D-09  .100000000000D+01  .157400000000D+04  .000000000000D+00
     .240000000000D+01  .000000000000D+00 -.884756445885D-08  .620000000000D+02
     .864060000000D+05  .400000000000D+01
30 10  3  8  2  0  0.0  .222559552640D-03  .329691829393D-11  .000000000000D+00
     .149000000000D+03 -.724687500000D+02  .463733602080D-08  .922673558086D+00
    -.384077429771D-05  .119809899479D-01  .785663723946D-05  .515377458954D+04
     .936000000000D+05 -.219792127609D-06 -.138899442515D+01 -.335276126862D-07
     .954908536642D+00  .227875000000D+03  .147479121603D+01 -.825462955274D-08
     .105361531588D-09  .100000000000D+01  .157400000000D+04  .000000000000D+00
     .240000000000D+01  .000000000000D+00 -.791624188423D-08  .149000000000D+03
     .864060000000D+05  .400000000000D+01
31 10  3  8  2  0  0.0 -.484208576381D-04  .170530256582D-11  .000000000000D+00
     .730000000000D+02 -.391250000000D+02  .425589156068D-08 -.301388159640D+01
    -.186450779438D-05  .757131539285D-02  .469759106636D-05  .515364001846D+04
     .936000000000D+05  .670552253723D-07 -.239121275671D+01  .111758708954D-06
     .976093284489D+00  .297812500000D+03 -.108399813079D+01 -.790568644643D-08
     .571452374714D-11  .100000000000D+01  .157400000000D+04  .000000000000D+00
     .240000000000D+01  .000000000000D+00 -.130385160446D-07  .730000000000D+02
     .864060000000D+05  .400000000000D+01
32 10  3  8  2  0  0.0  .794446095824D-04 -.852651282912D-11  .000000000000D+00
     .230000000000D+02  .644687500000D+02  .434160941689D-08 -.217818077834D+01
     .362657010555D-05  .128102271119D-01  .750832259655D-05  .515358370399D+04
     .936000000000D+05 -.279396772385D-07  .188213147737D+01  .286847352982D-06
     .959860229071D+00  .234093750000D+03 -.101229990862D+01 -.785497004817D-08
    -.828605943335D-10  .100000000000D+01  .157400000000D+04  .000000000000D+00
     .240000000000D+01  .000000000000D+00 -.325962901115D-08  .230000000000D+02
     .864060000000D+05  .400000000000D+01
 1 10  3  8  3  0  0.0 -.957301817834D-04 -.397903932026D-11  .000000000000D+00
     .102000000000D+03 -.688750000000D+02  .568059376239D-08  .161070239864D+01
    -.353157520294D-05  .438258412760D-02  .791251659393D-05  .515479990959D+04
     .972000000000D+05 -.212341547012D-06 -.135061303724D+01  .782310962677D-07
     .963594740012D+00  .229062500000D+03  .873772270682D+00 -.797890378194D-08
     .165006873199D-09  .100000000000D+01  .157400000000D+04  .000000000000D+00
     .685000000000D+01  .630000000000D+02 -.190921127796D-07  .102000000000D+03
     .864060000000D+05  .600000000000D+01
13 10  3  8  1 59 44.0  .306171830744D-03 -.227373675443D-12  .000000000000D+00
     .900000000000D+01  .378125000000D+02  .390194824609D-08 -.477106429558D+00
     .187382102013D-05  .423529185355D-02  .496394932270D-05  .515357842827D+04
     .935840000000D+05 -.931322574615D-08  .291012513958D+01  .223517417908D-07
     .993650715255D+00  .304875000000D+03  .164076517499D+01 -.790568644643D-08
     .310727228751D-10  .100000000000D+01  .157400000000D+04  .000000000000D+00
     .240000000000D+01  .000000000000D+00 -.111758708954D-07  .900000000000D+01
     .882060000000D+05  .400000000000D+01
